OBJECT_NAME,OBJECT_ID,EPOCH,MEAN_MOTION,ECCENTRICITY,INCLINATION,RA_OF_ASC_NODE,ARG_OF_PERICENTER,MEAN_ANOMALY,EPHEMERIS_TYPE,CLASSIFICATION_TYPE,NORAD_CAT_ID,ELEMENT_SET_NO,REV_AT_EPOCH,BSTAR,MEAN_MOTION_DOT,MEAN_MOTION_DDOT
STARLINK-30500,2023-160B,2026-06-11T13:41:25.425024,15.27581031,.0001728,43.0023,267.6955,276.0072,84.0583,0,U,58076,999,14730,.36022E-4,.729E-5,0
STARLINK-30613,2023-160C,2026-06-11T13:32:10.249728,15.27573327,.0001651,43.0064,267.6622,277.5425,82.5239,0,U,58077,999,14731,-.54463E-5,-.412E-5,0
STARLINK-30597,2023-160D,2026-06-11T00:38:32.660160,15.27579865,.0002874,42.9999,270.4913,263.1423,96.9102,0,U,58078,999,14722,.21062604E-4,.317E-5,0
STARLINK-30598,2023-160E,2026-06-11T13:37:42.501792,15.27580016,.0002966,43.0010,267.6842,282.5672,77.4848,0,U,58079,999,14730,.18325E-4,.242E-5,0
STARLINK-30603,2023-160F,2026-06-11T13:43:15.737088,15.27578320,.000267,43.0010,267.7119,276.0954,83.9593,0,U,58080,999,14730,.57021E-4,.1307E-4,0
STARLINK-30602,2023-160G,2026-06-11T14:21:54.489312,15.25961504,.0001414,43.0006,270.4822,293.2760,66.7943,0,U,58081,999,14727,.88831E-3,.23088E-3,0
STARLINK-30610,2023-160H,2026-06-11T14:20:16.592064,15.27574178,.0001285,43.0023,267.9031,257.1579,102.9129,0,U,58082,999,14730,.6764E-5,-.76E-6,0
STARLINK-30551,2023-160J,2026-06-11T13:37:00.558048,15.27574550,.0001778,43.0220,271.0942,295.0010,65.0658,0,U,58083,999,14726,.28158E-4,.512E-5,0
STARLINK-30586,2023-160K,2026-06-09T14:37:51.708864,15.27585811,.00014723,43.0057,282.1888,288.6837,71.3855,0,U,58084,999,14696,.74572797E-4,.1791E-4,0
STARLINK-30609,2023-160L,2026-06-11T13:48:06.218208,15.27577121,.0001258,43.0004,271.1420,245.3313,114.7408,0,U,58085,999,14726,.12365E-4,.78E-6,0
STARLINK-30583,2023-160M,2026-06-11T13:53:39.582240,15.27584254,.0000894,43.0001,271.1688,238.6949,121.3815,0,U,58086,999,14726,.58262E-4,.1342E-4,0
STARLINK-30557,2023-160N,2026-06-11T13:59:12.433056,15.27582682,.0001537,43.0013,271.1935,295.2656,64.8036,0,U,58087,999,14726,.39889E-4,.836E-5,0
STARLINK-30591,2023-160P,2026-06-10T01:02:30.835680,15.27580826,.00013608,43.0010,276.0188,272.7494,87.3201,0,U,58088,999,14707,.1315552E-4,.1E-5,0
STARLINK-30584,2023-160Q,2026-06-10T13:56:06.615168,15.27582796,.00021738,43.0043,273.1708,272.0334,88.0269,0,U,58089,999,14715,.6537675E-5,-.83E-6,0
STARLINK-30590,2023-160R,2026-06-10T23:59:12.593184,15.27550335,.00008118,43.0038,274.5404,278.2618,81.8141,0,U,58090,999,14717,.28040621E-3,.7455E-4,0
STARLINK-30608,2023-160S,2026-06-10T23:43:15.271680,15.27581428,.0001312,43.0016,271.0711,261.5380,98.5323,0,U,58091,999,14721,.4127924E-4,.874E-5,0
STARLINK-30615,2023-160T,2026-06-11T00:29:29.853024,15.27577282,.00049535,43.0314,271.3054,272.0400,87.9885,0,U,58092,999,14721,.6420458E-5,-.88E-6,0
STARLINK-30578,2023-160U,2026-06-11T13:26:36.648096,15.27575704,.0001198,42.9998,267.6131,254.7880,105.2840,0,U,58093,999,14730,.30071E-4,.565E-5,0
STARLINK-30574,2023-160V,2026-06-11T13:21:04.281120,15.27568377,.0002153,43.0068,267.5904,276.7090,83.3517,0,U,58094,999,14730,.94479E-5,-.3E-7,0
STARLINK-30570,2023-160W,2026-06-11T13:35:51.324864,15.27576750,.0002613,43.0100,267.6715,273.1137,86.9416,0,U,58095,999,14730,-.44694E-5,-.386E-5,0
STARLINK-30581,2023-160X,2026-06-11T07:35:53.198880,15.27575532,.0001798,43.0028,269.2205,276.1089,83.9558,0,U,58096,999,14726,.10733E-3,.2692E-4,0
STARLINK-30594,2023-161A,2026-06-11T11:48:24.398784,15.30173505,.0001156,53.1607,89.7997,82.5497,277.5635,0,U,58097,999,14878,.57425E-4,.1341E-4,0
STARLINK-30614,2023-161B,2026-06-11T11:43:49.204416,15.30199403,.0001337,53.1615,89.7807,102.3914,257.7237,0,U,58098,999,14878,.11458E-4,-.2E-6,0
STARLINK-30607,2023-161C,2026-06-11T11:48:30.030336,15.30189553,.00013,53.1609,79.7989,101.0030,259.1116,0,U,58099,999,14891,-.9857E-5,-.651E-5,0
STARLINK-30600,2023-161D,2026-06-11T12:49:01.724736,15.34403834,.000141,53.1631,89.3430,86.8231,273.2933,0,U,58100,999,14879,.55925E-4,.1514E-4,0
STARLINK-30605,2023-161E,2026-06-11T02:13:25.344480,15.30211718,.00014271,53.1607,91.5770,113.0180,247.0972,0,U,58101,999,14872,-.70283513E-4,-.2441E-4,0
STARLINK-30592,2023-161F,2026-06-11T01:57:32.863104,15.33555917,.00011659,53.1623,91.5090,95.1964,264.9172,0,U,58102,999,14872,.36110691E-4,.815E-5,0
STARLINK-30589,2023-161G,2026-06-11T01:32:30.724800,15.30187426,.00015674,53.1605,91.9049,105.1643,254.9531,0,U,58103,999,14871,.963041E-4,.2493E-4,0
STARLINK-30617,2023-161H,2026-06-11T12:35:28.470048,15.30181008,.0001505,53.1603,89.8058,94.7767,265.3405,0,U,58104,999,14878,-.75794E-5,-.584E-5,0
STARLINK-30616,2023-161J,2026-06-11T11:44:44.623968,15.34389702,.0001622,53.1616,76.1252,94.6058,265.5130,0,U,58105,999,14896,-.68514E-4,-.269E-4,0
