STARLINK-30500          
1 58076U 23160B   26162.57043316  .00000729  00000+0  36022-4 0  9998
2 58076  43.0023 267.6955 0001728 276.0072  84.0583 15.27581031147308
STARLINK-30613          
1 58077U 23160C   26162.56400752 -.00000412  00000+0 -54463-5 0  9990
2 58077  43.0064 267.6622 0001651 277.5425  82.5239 15.27573327147319
STARLINK-30597          
1 58078U 23160D   26162.02676690  .00000317  00000+0  21063-4 0  9999
2 58078  42.9999 270.4913 0002874 263.1423  96.9102 15.27579865147228
STARLINK-30598          
1 58079U 23160E   26162.56785303  .00000242  00000+0  18325-4 0  9995
2 58079  43.0010 267.6842 0002966 282.5672  77.4848 15.27580016147307
STARLINK-30603          
1 58080U 23160F   26162.57170992  .00001307  00000+0  57021-4 0  9999
2 58080  43.0010 267.7119 0002670 276.0954  83.9593 15.27578320147304
STARLINK-30602          
1 58081U 23160G   26162.59854733  .00023088  00000+0  88831-3 0  9996
2 58081  43.0006 270.4822 0001414 293.2760  66.7943 15.25961504147275
STARLINK-30610          
1 58082U 23160H   26162.59741426 -.00000076  00000+0  67640-5 0  9991
2 58082  43.0023 267.9031 0001285 257.1579 102.9129 15.27574178147303
STARLINK-30551          
1 58083U 23160J   26162.56736757  .00000512  00000+0  28158-4 0  9994
2 58083  43.0220 271.0942 0001778 295.0010  65.0658 15.27574550147263
STARLINK-30586          
1 58084U 23160K   26160.60962626  .00001791  00000+0  74573-4 0  9996
2 58084  43.0057 282.1888 0001472 288.6837  71.3855 15.27585811146967
STARLINK-30609          
1 58085U 23160L   26162.57507197  .00000078  00000+0  12365-4 0  9991
2 58085  43.0004 271.1420 0001258 245.3313 114.7408 15.27577121147266
STARLINK-30583          
1 58086U 23160M   26162.57893035  .00001342  00000+0  58262-4 0  9992
2 58086  43.0001 271.1688 0000894 238.6949 121.3815 15.27584254147266
STARLINK-30557          
1 58087U 23160N   26162.58278279  .00000836  00000+0  39889-4 0  9992
2 58087  43.0013 271.1935 0001537 295.2656  64.8036 15.27582682147263
STARLINK-30591          
1 58088U 23160P   26161.04341245  .00000100  00000+0  13156-4 0  9990
2 58088  43.0010 276.0188 0001360 272.7494  87.3201 15.27580826147070
STARLINK-30584          
1 58089U 23160Q   26161.58063212 -.00000083  00000+0  65377-5 0  9999
2 58089  43.0043 273.1708 0002173 272.0334  88.0269 15.27582796147151
STARLINK-30590          
1 58090U 23160R   26161.99945131  .00007455  00000+0  28041-3 0  9999
2 58090  43.0038 274.5404 0000811 278.2618  81.8141 15.27550335147171
STARLINK-30608          
1 58091U 23160S   26161.98837120  .00000874  00000+0  41279-4 0  9994
2 58091  43.0016 271.0711 0001312 261.5380  98.5323 15.27581428147218
STARLINK-30615          
1 58092U 23160T   26162.02048441 -.00000088  00000+0  64205-5 0  9994
2 58092  43.0314 271.3054 0004953 272.0400  87.9885 15.27577282147215
STARLINK-30578          
1 58093U 23160U   26162.56014639  .00000565  00000+0  30071-4 0  9998
2 58093  42.9998 267.6131 0001198 254.7880 105.2840 15.27575704147305
STARLINK-30574          
1 58094U 23160V   26162.55629955 -.00000003  00000+0  94479-5 0  9992
2 58094  43.0068 267.5904 0002153 276.7090  83.3517 15.27568377147307
STARLINK-30570          
1 58095U 23160W   26162.56656626 -.00000386  00000+0 -44694-5 0  9998
2 58095  43.0100 267.6715 0002613 273.1137  86.9416 15.27576750147301
STARLINK-30581          
1 58096U 23160X   26162.31658795  .00002692  00000+0  10733-3 0  9996
2 58096  43.0028 269.2205 0001798 276.1089  83.9558 15.27575532147261
STARLINK-30594          
1 58097U 23161A   26162.49194906  .00001341  00000+0  57425-4 0  9996
2 58097  53.1607  89.7997 0001156  82.5497 277.5635 15.30173505148783
STARLINK-30614          
1 58098U 23161B   26162.48876394 -.00000020  00000+0  11458-4 0  9994
2 58098  53.1615  89.7807 0001337 102.3914 257.7237 15.30199403148782
STARLINK-30607          
1 58099U 23161C   26162.49201424 -.00000651  00000+0 -98570-5 0  9994
2 58099  53.1609  79.7989 0001300 101.0030 259.1116 15.30189553148913
STARLINK-30600          
1 58100U 23161D   26162.53404774  .00001514  00000+0  55925-4 0  9998
2 58100  53.1631  89.3430 0001410  86.8231 273.2933 15.34403834148799
STARLINK-30605          
1 58101U 23161E   26162.09265445 -.00002441  00000+0 -70284-4 0  9997
2 58101  53.1607  91.5770 0001427 113.0180 247.0972 15.30211718148728
STARLINK-30592          
1 58102U 23161F   26162.08163036  .00000815  00000+0  36111-4 0  9992
2 58102  53.1623  91.5090 0001165  95.1964 264.9172 15.33555917148726
STARLINK-30589          
1 58103U 23161G   26162.06424450  .00002493  00000+0  96304-4 0  9995
2 58103  53.1605  91.9049 0001567 105.1643 254.9531 15.30187426148717
STARLINK-30617          
1 58104U 23161H   26162.52463507 -.00000584  00000+0 -75794-5 0  9995
2 58104  53.1603  89.8058 0001505  94.7767 265.3405 15.30181008148787
STARLINK-30616          
1 58105U 23161J   26162.48940537 -.00002690  00000+0 -68514-4 0  9995
2 58105  53.1616  76.1252 0001622  94.6058 265.5130 15.34389702148961
